{
  "type": "FeatureCollection",
  "features": [
    {
      "type": "Feature",
      "properties": {
        "norad_id": 24946,
        "name": "IRIDIUM 33",
        "group": "iridium-33-debris",
        "lat": -3.4954625887503377,
        "lon": 71.49731729839458,
        "alt_km": 780.9153297337789,
        "timestamp": "2025-12-04T09:47:37.904585+00:00",
        "meta_object_name": "IRIDIUM 33",
        "meta_object_id": "1997-051C",
        "meta_epoch": "2025-12-03T18:44:55.101120",
        "meta_mean_motion": 14.35026626,
        "meta_eccentricity": 0.00061595,
        "meta_inclination": 86.3871,
        "meta_ra_of_asc_node": 71.9815,
        "meta_arg_of_pericenter": 234.9647,
        "meta_mean_anomaly": 125.0972,
        "meta_ephemeris_type": 0,
        "meta_classification_type": "U",
        "meta_norad_cat_id": 24946,
        "meta_element_set_no": 999,
        "meta_rev_at_epoch": 47706,
        "meta_bstar": 0.00019630892,
        "meta_mean_motion_dot": 5.79e-06,
        "meta_mean_motion_ddot": 0,
        "tle_line1": "1 24946U 97051C   25337.78119330  .00000579  00000+0  19631-3 0  9992",
        "tle_line2": "2 24946  86.3871  71.9815 0006159 234.9647 125.0972 14.35026626477062"
      },
      "geometry": {
        "type": "Point",
        "coordinates": [
          71.49731729839458,
          -3.4954625887503377
        ]
      }
    },
    {
      "type": "Feature",
      "properties": {
        "norad_id": 33773,
        "name": "IRIDIUM 33 DEB",
        "group": "iridium-33-debris",
        "lat": 67.22910952191684,
        "lon": 72.74179733657316,
        "alt_km": 743.4469728347713,
        "timestamp": "2025-12-04T09:47:37.904613+00:00",
        "meta_object_name": "IRIDIUM 33 DEB",
        "meta_object_id": "1997-051L",
        "meta_epoch": "2025-12-04T04:29:22.955136",
        "meta_mean_motion": 14.43227722,
        "meta_eccentricity": 0.0011567,
        "meta_inclination": 86.4014,
        "meta_ra_of_asc_node": 64.2131,
        "meta_arg_of_pericenter": 172.7623,
        "meta_mean_anomaly": 187.3747,
        "meta_ephemeris_type": 0,
        "meta_classification_type": "U",
        "meta_norad_cat_id": 33773,
        "meta_element_set_no": 999,
        "meta_rev_at_epoch": 88224,
        "meta_bstar": 0.00064804,
        "meta_mean_motion_dot": 2.2e-05,
        "meta_mean_motion_ddot": 0,
        "tle_line1": "1 33773U 97051L   25338.18707124  .00002200  00000+0  64804-3 0  9994",
        "tle_line2": "2 33773  86.4014  64.2131 0011567 172.7623 187.3747 14.43227722882248"
      },
      "geometry": {
        "type": "Point",
        "coordinates": [
          72.74179733657316,
          67.22910952191684
        ]
      }
    },
    {
      "type": "Feature",
      "properties": {
        "norad_id": 33775,
        "name": "IRIDIUM 33 DEB",
        "group": "iridium-33-debris",
        "lat": -24.850126293945006,
        "lon": -125.20267404164922,
        "alt_km": 750.7193190440685,
        "timestamp": "2025-12-04T09:47:37.904628+00:00",
        "meta_object_name": "IRIDIUM 33 DEB",
        "meta_object_id": "1997-051N",
        "meta_epoch": "2025-12-04T04:08:13.949952",
        "meta_mean_motion": 14.41439472,
        "meta_eccentricity": 0.0013301,
        "meta_inclination": 86.3643,
        "meta_ra_of_asc_node": 53.2105,
        "meta_arg_of_pericenter": 181.7923,
        "meta_mean_anomaly": 240.6552,
        "meta_ephemeris_type": 0,
        "meta_classification_type": "U",
        "meta_norad_cat_id": 33775,
        "meta_element_set_no": 999,
        "meta_rev_at_epoch": 88017,
        "meta_bstar": 0.0006498,
        "meta_mean_motion_dot": 2.128e-05,
        "meta_mean_motion_ddot": 0,
        "tle_line1": "1 33775U 97051N   25338.17238368  .00002128  00000+0  64980-3 0  9998",
        "tle_line2": "2 33775  86.3643  53.2105 0013301 181.7923 240.6552 14.41439472880179"
      },
      "geometry": {
        "type": "Point",
        "coordinates": [
          -125.20267404164922,
          -24.850126293945006
        ]
      }
    },
    {
      "type": "Feature",
      "properties": {
        "norad_id": 33776,
        "name": "IRIDIUM 33 DEB",
        "group": "iridium-33-debris",
        "lat": 8.762704190805925,
        "lon": -96.2809970235085,
        "alt_km": 759.8623161596697,
        "timestamp": "2025-12-04T09:47:37.904641+00:00",
        "meta_object_name": "IRIDIUM 33 DEB",
        "meta_object_id": "1997-051P",
        "meta_epoch": "2025-12-04T01:27:18.984960",
        "meta_mean_motion": 14.38208616,
        "meta_eccentricity": 0.0013413,
        "meta_inclination": 86.4038,
        "meta_ra_of_asc_node": 84.4203,
        "meta_arg_of_pericenter": 220.3755,
        "meta_mean_anomaly": 313.0881,
        "meta_ephemeris_type": 0,
        "meta_classification_type": "U",
        "meta_norad_cat_id": 33776,
        "meta_element_set_no": 999,
        "meta_rev_at_epoch": 87957,
        "meta_bstar": 0.00057038,
        "meta_mean_motion_dot": 1.752e-05,
        "meta_mean_motion_ddot": 0,
        "tle_line1": "1 33776U 97051P   25338.06063640  .00001752  00000+0  57038-3 0  9994",
        "tle_line2": "2 33776  86.4038  84.4203 0013413 220.3755 313.0881 14.38208616879573"
      },
      "geometry": {
        "type": "Point",
        "coordinates": [
          -96.2809970235085,
          8.762704190805925
        ]
      }
    },
    {
      "type": "Feature",
      "properties": {
        "norad_id": 33777,
        "name": "IRIDIUM 33 DEB",
        "group": "iridium-33-debris",
        "lat": 20.41033911012447,
        "lon": -142.5223177873191,
        "alt_km": 710.0989356751043,
        "timestamp": "2025-12-04T09:47:37.904653+00:00",
        "meta_object_name": "IRIDIUM 33 DEB",
        "meta_object_id": "1997-051Q",
        "meta_epoch": "2025-12-04T04:06:47.905056",
        "meta_mean_motion": 14.5551004,
        "meta_eccentricity": 0.0005147,
        "meta_inclination": 86.3799,
        "meta_ra_of_asc_node": 38.9304,
        "meta_arg_of_pericenter": 289.5346,
        "meta_mean_anomaly": 70.5306,
        "meta_ephemeris_type": 0,
        "meta_classification_type": "U",
        "meta_norad_cat_id": 33777,
        "meta_element_set_no": 999,
        "meta_rev_at_epoch": 88409,
        "meta_bstar": 0.0021194,
        "meta_mean_motion_dot": 9.25e-05,
        "meta_mean_motion_ddot": 0,
        "tle_line1": "1 33777U 97051Q   25338.17138779  .00009250  00000+0  21194-2 0  9997",
        "tle_line2": "2 33777  86.3799  38.9304 0005147 289.5346  70.5306 14.55510040884097"
      },
      "geometry": {
        "type": "Point",
        "coordinates": [
          -142.5223177873191,
          20.41033911012447
        ]
      }
    },
    {
      "type": "Feature",
      "properties": {
        "norad_id": 33850,
        "name": "IRIDIUM 33 DEB",
        "group": "iridium-33-debris",
        "lat": 14.599579103974913,
        "lon": -147.19292252232725,
        "alt_km": 745.0220474176158,
        "timestamp": "2025-12-04T09:47:37.904665+00:00",
        "meta_object_name": "IRIDIUM 33 DEB",
        "meta_object_id": "1997-051T",
        "meta_epoch": "2025-12-03T22:10:26.250816",
        "meta_mean_motion": 14.42117824,
        "meta_eccentricity": 0.00112726,
        "meta_inclination": 86.3424,
        "meta_ra_of_asc_node": 33.9698,
        "meta_arg_of_pericenter": 188.7518,
        "meta_mean_anomaly": 344.5598,
        "meta_ephemeris_type": 0,
        "meta_classification_type": "U",
        "meta_norad_cat_id": 33850,
        "meta_element_set_no": 999,
        "meta_rev_at_epoch": 88025,
        "meta_bstar": 0.00074765401,
        "meta_mean_motion_dot": 2.478e-05,
        "meta_mean_motion_ddot": 0,
        "tle_line1": "1 33850U 97051T   25337.92391494  .00002478  00000+0  74765-3 0  9994",
        "tle_line2": "2 33850  86.3424  33.9698 0011272 188.7518 344.5598 14.42117824880252"
      },
      "geometry": {
        "type": "Point",
        "coordinates": [
          -147.19292252232725,
          14.599579103974913
        ]
      }
    },
    {
      "type": "Feature",
      "properties": {
        "norad_id": 33853,
        "name": "IRIDIUM 33 DEB",
        "group": "iridium-33-debris",
        "lat": 40.806415942979584,
        "lon": -3.0710936152253954,
        "alt_km": 1007.1066547832297,
        "timestamp": "2025-12-04T09:47:37.904677+00:00",
        "meta_object_name": "IRIDIUM 33 DEB",
        "meta_object_id": "1997-051W",
        "meta_epoch": "2025-12-03T12:03:16.669728",
        "meta_mean_motion": 13.98961391,
        "meta_eccentricity": 0.02068073,
        "meta_inclination": 86.0004,
        "meta_ra_of_asc_node": 353.8627,
        "meta_arg_of_pericenter": 264.3782,
        "meta_mean_anomaly": 255.9822,
        "meta_ephemeris_type": 0,
        "meta_classification_type": "U",
        "meta_norad_cat_id": 33853,
        "meta_element_set_no": 999,
        "meta_rev_at_epoch": 85216,
        "meta_bstar": 0.0030737187,
        "meta_mean_motion_dot": 5.345e-05,
        "meta_mean_motion_ddot": 0,
        "tle_line1": "1 33853U 97051W   25337.50227627  .00005345  00000+0  30737-2 0  9993",
        "tle_line2": "2 33853  86.0004 353.8627 0206807 264.3782 255.9822 13.98961391852166"
      },
      "geometry": {
        "type": "Point",
        "coordinates": [
          -3.0710936152253954,
          40.806415942979584
        ]
      }
    }
  ]
}